     3.00           N                   E                   RINEX VERSION / TYPE
BRD_USR             ESA                 20190104 202613  UTCPGM / RUN BY / DATE
 GAL   4.4750E+01 -1.5625E-02 -2.1362E-03  0.0000E+00       IONOSPHERIC CORR
GAUT -9.3132257462E-10 0.000000000E+00 432000 2034 GSTB   0 TIME SYSTEM CORR
GPGA -3.2014213502E-09-1.332267630E-15 518400 2034 GSTB   0 TIME SYSTEM CORR
                                                            END OF HEADER
E24 2019 01 04 18 20 00 6.303064525127E-03-1.971045548999E-11 0.000000000000E+00
     6.200000000000E+01 1.894062500000E+02 2.531891177716E-09 6.844748478563E-01
     8.935108780861E-06 4.610678879544E-04 8.555129170418E-06 5.440623704910E+03
     4.980000000000E+05 2.048909664154E-08-2.821815334861E+00 2.980232238770E-08
     9.879193050445E-01 1.683125000000E+02 4.401185618247E-01-5.249861534948E-09
     1.285767843106E-11 2.580000000000E+02 2.034000000000E+03 0.000000000000E+00
     3.120000000000E+00 0.000000000000E+00 4.284083843231E-08 0.000000000000E+00
     4.987000000000E+05 0.000000000000E+00 0.000000000000E+00 0.000000000000E+00
E27 2019 01 04 18 20 00 5.563964368775E-04-7.659650691494E-12 0.000000000000E+00
     6.200000000000E+01 1.906250000000E+02 2.407600286216E-09-1.061252801919E+00
     8.916482329369E-06 2.109644701704E-04 1.064874231815E-05 5.440640794754E+03
     4.980000000000E+05 4.470348358154E-08-2.827879225389E+00-9.313225746155E-09
     9.898888799309E-01 1.239062500000E+02-9.331556162827E-01-5.249147219480E-09
     3.142988060926E-11 2.580000000000E+02 2.034000000000E+03 0.000000000000E+00
     3.120000000000E+00 0.000000000000E+00-2.793967723846E-09 0.000000000000E+00
     4.987000000000E+05 0.000000000000E+00 0.000000000000E+00 0.000000000000E+00
E30 2019 01 04 18 20 00 5.214950768277E-03-3.056754849240E-11 0.000000000000E+00
     6.200000000000E+01 2.072812500000E+02 2.421529437849E-09-1.722609295809E+00
     9.614974260330E-06 2.955622039735E-04 1.008063554764E-05 5.440624256134E+03
     4.980000000000E+05-1.359730958939E-07-2.821872192635E+00-4.842877388000E-08
     9.879036225627E-01 1.368125000000E+02 4.934848244237E-01-5.168072413817E-09
     1.246480492344E-10 2.580000000000E+02 2.034000000000E+03 0.000000000000E+00
     3.120000000000E+00 0.000000000000E+00-3.026798367500E-09 0.000000000000E+00
     4.987000000000E+05 0.000000000000E+00 0.000000000000E+00 0.000000000000E+00
E31 2019 01 04 18 20 00 9.410562925041E-04-9.649170351622E-12 0.000000000000E+00
     6.200000000000E+01 1.798750000000E+02 2.435458589483E-09-2.804497727570E+00
     8.329749107361E-06 2.569193020463E-04 9.296461939812E-06 5.440638338089E+03
     4.980000000000E+05 8.009374141693E-08-2.827927260304E+00 6.891787052155E-08
     9.898923031592E-01 1.552812500000E+02-1.546083510618E+00-5.245218484404E-09
    -3.428714248282E-11 2.580000000000E+02 2.034000000000E+03 0.000000000000E+00
     3.120000000000E+00 0.000000000000E+00 0.000000000000E+00 0.000000000000E+00
     4.987000000000E+05 0.000000000000E+00 0.000000000000E+00 0.000000000000E+00
E36 2019 01 04 18 20 00 7.635384681635E-04-4.533262654149E-12 0.000000000000E+00
     6.200000000000E+01-2.059375000000E+02 2.532248335450E-09-9.902537682728E-02
    -9.510666131973E-06 3.240638179705E-04 6.463378667831E-06 5.440606330872E+03
     4.980000000000E+05-4.284083843231E-08-7.448906873899E-01-5.587935447693E-09
     9.852549055130E-01 2.132500000000E+02-1.650894326147E+00-5.451655654769E-09
    -3.085842823454E-10 2.580000000000E+02 2.034000000000E+03 0.000000000000E+00
     3.120000000000E+00 5.600000000000E+01 9.313225746155E-10 0.000000000000E+00
     4.987000000000E+05 0.000000000000E+00 0.000000000000E+00 0.000000000000E+00
E05 2019 01 04 18 20 00 1.307339407504E-04-6.608047442569E-12 0.000000000000E+00
     6.200000000000E+01 8.062500000000E+00 3.840517115810E-09 9.159612057122E-01
     4.302710294724E-07 1.534428447485E-04 4.082918167114E-06 5.440601726532E+03
     4.980000000000E+05-9.313225746155E-09 1.365603201849E+00 1.490116119385E-08
     9.521656676477E-01 2.484062500000E+02 1.518202098731E+00-5.769526038204E-09
     2.014369620866E-10 5.210000000000E+02 2.034000000000E+03 0.000000000000E+00
     3.120000000000E+00 0.000000000000E+00-1.629814505577E-09-1.629814505577E-09
     4.987150000000E+05 0.000000000000E+00 0.000000000000E+00 0.000000000000E+00
E09 2019 01 04 18 20 00 6.568075565156E-03-1.135447291745E-11 0.000000000000E+00
     6.200000000000E+01 9.250000000000E+00 3.771228515376E-09 3.058892144919E+00
     4.675239324570E-07 2.561047440395E-04 3.999099135399E-06 5.440603641510E+03
     4.980000000000E+05-4.470348358154E-08 1.356969132491E+00-7.450580596924E-09
     9.581670198909E-01 2.552187500000E+02 1.589867593967E-01-5.747382258683E-09
     1.889364413897E-10 5.210000000000E+02 2.034000000000E+03 0.000000000000E+00
     3.120000000000E+00 0.000000000000E+00-3.259629011154E-09-3.958120942116E-09
     4.987150000000E+05 0.000000000000E+00 0.000000000000E+00 0.000000000000E+00
E15 2019 01 04 18 20 00 9.238658822142E-04-1.094235813071E-12 0.000000000000E+00
     6.200000000000E+01-2.121875000000E+02 2.594393781200E-09-1.627022780030E+00
    -9.769573807716E-06 3.799357218668E-04 5.330890417099E-06 5.440602369308E+03
     4.980000000000E+05 5.587935447693E-08-7.448926681810E-01 2.607703208923E-08
     9.852079794897E-01 2.381562500000E+02-1.695809284669E+00-5.536659195508E-09
    -2.571535686212E-10 5.210000000000E+02 2.034000000000E+03 0.000000000000E+00
     3.120000000000E+00 4.550000000000E+02 1.396983861923E-09 1.396983861923E-09
     4.987150000000E+05 0.000000000000E+00 0.000000000000E+00 0.000000000000E+00
E02 2019 01 04 18 20 00 4.196749068797E-05 1.463718035666E-12 0.000000000000E+00
     6.200000000000E+01 2.057812500000E+02 2.410814705824E-09-1.652078770455E-01
     9.426847100258E-06 2.690085675567E-04 9.601935744286E-06 5.440628261566E+03
     4.980000000000E+05-4.097819328308E-08-2.825322108955E+00-3.725290298462E-08
     9.903607426944E-01 1.483437500000E+02-2.779347939226E-01-5.259504793772E-09
     2.785830326729E-11 2.580000000000E+02 2.034000000000E+03 0.000000000000E+00
     3.120000000000E+00 0.000000000000E+00-6.053596735001E-09 0.000000000000E+00
     4.987500000000E+05 0.000000000000E+00 0.000000000000E+00 0.000000000000E+00
E12 2019 01 04 18 20 00 5.869412852917E-03 8.434142273472E-11 0.000000000000E+00
     6.200000000000E+01-1.863437500000E+02 2.601894093618E-09 7.348456745062E-01
    -8.659437298775E-06 3.656970802695E-04 5.530193448067E-06 5.440611421585E+03
     4.980000000000E+05 9.313225746155E-09-7.395943168320E-01 1.117587089539E-08
     9.820230810202E-01 2.314375000000E+02-9.009498170905E-01-5.483085535378E-09
    -2.303667385565E-10 2.580000000000E+02 2.034000000000E+03 0.000000000000E+00
     3.120000000000E+00 0.000000000000E+00-1.559965312481E-08 0.000000000000E+00
     4.987500000000E+05 0.000000000000E+00 0.000000000000E+00 0.000000000000E+00
E02 2019 01 04 18 20 00 4.196638474241E-05 1.449507180951E-12 0.000000000000E+00
     6.200000000000E+01 2.057812500000E+02 2.410814705824E-09-1.652078770455E-01
     9.426847100258E-06 2.690085675567E-04 9.601935744286E-06 5.440628261566E+03
     4.980000000000E+05-4.097819328308E-08-2.825322108955E+00-3.725290298462E-08
     9.903607426944E-01 1.483437500000E+02-2.779347939226E-01-5.259504793772E-09
     2.785830326729E-11 5.210000000000E+02 2.034000000000E+03 0.000000000000E+00
     3.120000000000E+00 0.000000000000E+00-6.053596735001E-09-7.450580596924E-09
     4.987750000000E+05 0.000000000000E+00 0.000000000000E+00 0.000000000000E+00
E09 2019 01 04 18 20 00 6.568075565156E-03-1.135447291745E-11 0.000000000000E+00
     6.200000000000E+01 9.250000000000E+00 3.771228515376E-09 3.058892144919E+00
     4.675239324570E-07 2.561047440395E-04 3.999099135399E-06 5.440603641510E+03
     4.980000000000E+05-4.470348358154E-08 1.356969132491E+00-7.450580596924E-09
     9.581670198909E-01 2.552187500000E+02 1.589867593967E-01-5.747382258683E-09
     1.889364413897E-10 5.210000000000E+02 2.034000000000E+03 0.000000000000E+00
     3.120000000000E+00 0.000000000000E+00-3.259629011154E-09-3.958120942116E-09
     4.987750000000E+05 0.000000000000E+00 0.000000000000E+00 0.000000000000E+00
E12 2019 01 04 18 20 00 5.869412445463E-03 8.434142273472E-11 0.000000000000E+00
     6.200000000000E+01-1.863437500000E+02 2.601894093618E-09 7.348456745062E-01
    -8.659437298775E-06 3.656970802695E-04 5.530193448067E-06 5.440611421585E+03
     4.980000000000E+05 9.313225746155E-09-7.395943168320E-01 1.117587089539E-08
     9.820230810202E-01 2.314375000000E+02-9.009498170905E-01-5.483085535378E-09
    -2.303667385565E-10 5.210000000000E+02 2.034000000000E+03 0.000000000000E+00
     3.120000000000E+00 0.000000000000E+00-1.559965312481E-08-1.606531441212E-08
     4.987750000000E+05 0.000000000000E+00 0.000000000000E+00 0.000000000000E+00
E09 2019 01 04 18 20 00 6.568075914402E-03-1.135447291745E-11 0.000000000000E+00
     6.200000000000E+01 9.250000000000E+00 3.771228515376E-09 3.058892144919E+00
     4.675239324570E-07 2.561047440395E-04 3.999099135399E-06 5.440603641510E+03
     4.980000000000E+05-4.470348358154E-08 1.356969132491E+00-7.450580596924E-09
     9.581670198909E-01 2.552187500000E+02 1.589867593967E-01-5.747382258683E-09
     1.889364413897E-10 2.580000000000E+02 2.034000000000E+03 0.000000000000E+00
     3.120000000000E+00 0.000000000000E+00-3.259629011154E-09 0.000000000000E+00
     4.988000000000E+05 0.000000000000E+00 0.000000000000E+00 0.000000000000E+00
